COSMOS 1933             
1 18958U 88020A   26023.49775604  .00006871  00000+0  34082-3 0  9995
2 18958  82.5139 295.6132 0004841  22.0327 338.1114 15.17552941 43370
SL-3 R/B                
1 19046U 88032B   26023.88986938  .00009866  00000+0  46617-3 0  9998
2 19046  97.5133   7.3439 0027505  33.7458 326.5520 15.19276164 45302
SL-16 R/B               
1 19120U 88039B   26023.81364087 -.00000030  00000+0  84785-5 0  9991
2 19120  71.0144 163.4374 0020153  44.5384 315.7356 14.19608633952017
COSMOS 1953             
1 19210U 88050A   26023.89963087  .00013266  00000+0  49014-3 0  9995
2 19210  82.5073 203.2569 0010389 283.9142  76.0941 15.27559332 30942
SL-8 R/B                
1 19257U 88053B   26023.53345652  .00000417  00000+0  14352-3 0  9993
2 19257  74.0458 195.6913 0019690  24.8383  31.1884 14.38886072970100
COSMOS 1975             
1 19573U 88093A   26023.79073469  .00012533  00000+0  46816-3 0  9992
2 19573  82.5216 162.7107 0010929 333.7385  26.3298 15.27189432 12553
SL-14 R/B               
1 19574U 88093B   26023.62014583  .00000837  00000+0  93659-4 0  9999
2 19574  82.5297  84.3637 0020619 183.0799 329.8550 14.85604103994340
SL-16 R/B               
1 19650U 88102B   26023.91038053 -.00000001  00000+0  23472-4 0  9995
2 19650  70.9977 245.7143 0011920  76.7646 283.4806 14.16148250920551
INTERCOSMOS 24          
1 20261U 89080A   26023.68748870  .00000773  00000+0  22082-3 0  9990
2 20261  82.6079 133.6855 1188819  37.2695 330.5168 12.59497929661134
SL-14 R/B               
1 20262U 89080C   26023.90718332  .00000436  00000+0  13255-3 0  9994
2 20262  82.5921 201.9402 1229552 287.1848  59.8458 12.50444816654552
DELTA 1 R/B             
1 20323U 89089B   26023.85468746  .00000749  00000+0  19436-3 0  9990
2 20323  97.0733 238.4145 0067546 264.3491  95.0002 14.50618331889233
ARIANE 40 R/B           
1 20443U 90005H   26023.92183333  .00000713  00000+0  24050-3 0  9996
2 20443  98.3178  85.8956 0009635 346.1706  13.9217 14.39837016886368
