CCSDS_OMM_VERS = 2.0
CREATION_DATE  = 
ORIGINATOR     = 

OBJECT_NAME    = COSMOS 1933
OBJECT_ID      = 1988-020A
CENTER_NAME    = EARTH
REF_FRAME      = TEME
TIME_SYSTEM    = UTC
MEAN_ELEMENT_THEORY = SGP/SGP4

EPOCH          = 2026-01-23T11:56:46.121856
MEAN_MOTION    = 15.17552941
ECCENTRICITY   = .00048417
INCLINATION    = 82.5139
RA_OF_ASC_NODE = 295.6132
ARG_OF_PERICENTER = 22.0327
MEAN_ANOMALY   = 338.1114

EPHEMERIS_TYPE = 0
CLASSIFICATION_TYPE = U
NORAD_CAT_ID   = 18958
ELEMENT_SET_NO = 999
REV_AT_EPOCH   = 4337
BSTAR          = .34081852E-3
MEAN_MOTION_DOT = .6871E-4
MEAN_MOTION_DDOT = 0

CCSDS_OMM_VERS = 2.0
CREATION_DATE  = 
ORIGINATOR     = 

OBJECT_NAME    = SL-3 R/B
OBJECT_ID      = 1988-032B
CENTER_NAME    = EARTH
REF_FRAME      = TEME
TIME_SYSTEM    = UTC
MEAN_ELEMENT_THEORY = SGP/SGP4

EPOCH          = 2026-01-23T21:21:24.714432
MEAN_MOTION    = 15.19276164
ECCENTRICITY   = .00275052
INCLINATION    = 97.5133
RA_OF_ASC_NODE = 7.3439
ARG_OF_PERICENTER = 33.7458
MEAN_ANOMALY   = 326.5520

EPHEMERIS_TYPE = 0
CLASSIFICATION_TYPE = U
NORAD_CAT_ID   = 19046
ELEMENT_SET_NO = 999
REV_AT_EPOCH   = 4530
BSTAR          = .46617062E-3
MEAN_MOTION_DOT = .9866E-4
MEAN_MOTION_DDOT = 0

CCSDS_OMM_VERS = 2.0
CREATION_DATE  = 
ORIGINATOR     = 

OBJECT_NAME    = SL-16 R/B
OBJECT_ID      = 1988-039B
CENTER_NAME    = EARTH
REF_FRAME      = TEME
TIME_SYSTEM    = UTC
MEAN_ELEMENT_THEORY = SGP/SGP4

EPOCH          = 2026-01-23T19:31:38.571168
MEAN_MOTION    = 14.19608633
ECCENTRICITY   = .00201538
INCLINATION    = 71.0144
RA_OF_ASC_NODE = 163.4374
ARG_OF_PERICENTER = 44.5384
MEAN_ANOMALY   = 315.7356

EPHEMERIS_TYPE = 0
CLASSIFICATION_TYPE = U
NORAD_CAT_ID   = 19120
ELEMENT_SET_NO = 999
REV_AT_EPOCH   = 95201
BSTAR          = .8478491E-5
MEAN_MOTION_DOT = -.3E-6
MEAN_MOTION_DDOT = 0

CCSDS_OMM_VERS = 2.0
CREATION_DATE  = 
ORIGINATOR     = 

OBJECT_NAME    = COSMOS 1953
OBJECT_ID      = 1988-050A
CENTER_NAME    = EARTH
REF_FRAME      = TEME
TIME_SYSTEM    = UTC
MEAN_ELEMENT_THEORY = SGP/SGP4

EPOCH          = 2026-01-23T21:35:28.107168
MEAN_MOTION    = 15.27559332
ECCENTRICITY   = .00103899
INCLINATION    = 82.5073
RA_OF_ASC_NODE = 203.2569
ARG_OF_PERICENTER = 283.9142
MEAN_ANOMALY   = 76.0941

EPHEMERIS_TYPE = 0
CLASSIFICATION_TYPE = U
NORAD_CAT_ID   = 19210
ELEMENT_SET_NO = 999
REV_AT_EPOCH   = 3094
BSTAR          = .49013741E-3
MEAN_MOTION_DOT = .13266E-3
MEAN_MOTION_DDOT = 0

CCSDS_OMM_VERS = 2.0
CREATION_DATE  = 
ORIGINATOR     = 

OBJECT_NAME    = SL-8 R/B
OBJECT_ID      = 1988-053B
CENTER_NAME    = EARTH
REF_FRAME      = TEME
TIME_SYSTEM    = UTC
MEAN_ELEMENT_THEORY = SGP/SGP4

EPOCH          = 2026-01-23T12:48:10.643328
MEAN_MOTION    = 14.38886072
ECCENTRICITY   = .00196903
INCLINATION    = 74.0458
RA_OF_ASC_NODE = 195.6913
ARG_OF_PERICENTER = 24.8383
MEAN_ANOMALY   = 31.1884

EPHEMERIS_TYPE = 0
CLASSIFICATION_TYPE = U
NORAD_CAT_ID   = 19257
ELEMENT_SET_NO = 999
REV_AT_EPOCH   = 97010
BSTAR          = .14352306E-3
MEAN_MOTION_DOT = .417E-5
MEAN_MOTION_DDOT = 0

CCSDS_OMM_VERS = 2.0
CREATION_DATE  = 
ORIGINATOR     = 

OBJECT_NAME    = COSMOS 1975
OBJECT_ID      = 1988-093A
CENTER_NAME    = EARTH
REF_FRAME      = TEME
TIME_SYSTEM    = UTC
MEAN_ELEMENT_THEORY = SGP/SGP4

EPOCH          = 2026-01-23T18:58:39.477216
MEAN_MOTION    = 15.27189432
ECCENTRICITY   = .00109296
INCLINATION    = 82.5216
RA_OF_ASC_NODE = 162.7107
ARG_OF_PERICENTER = 333.7385
MEAN_ANOMALY   = 26.3298

EPHEMERIS_TYPE = 0
CLASSIFICATION_TYPE = U
NORAD_CAT_ID   = 19573
ELEMENT_SET_NO = 999
REV_AT_EPOCH   = 1255
BSTAR          = .4681634E-3
MEAN_MOTION_DOT = .12533E-3
MEAN_MOTION_DDOT = 0

CCSDS_OMM_VERS = 2.0
CREATION_DATE  = 
ORIGINATOR     = 

OBJECT_NAME    = SL-14 R/B
OBJECT_ID      = 1988-093B
CENTER_NAME    = EARTH
REF_FRAME      = TEME
TIME_SYSTEM    = UTC
MEAN_ELEMENT_THEORY = SGP/SGP4

EPOCH          = 2026-01-23T14:53:00.599712
MEAN_MOTION    = 14.85604103
ECCENTRICITY   = .00206195
INCLINATION    = 82.5297
RA_OF_ASC_NODE = 84.3637
ARG_OF_PERICENTER = 183.0799
MEAN_ANOMALY   = 329.8550

EPHEMERIS_TYPE = 0
CLASSIFICATION_TYPE = U
NORAD_CAT_ID   = 19574
ELEMENT_SET_NO = 999
REV_AT_EPOCH   = 99434
BSTAR          = .93659024E-4
MEAN_MOTION_DOT = .837E-5
MEAN_MOTION_DDOT = 0

CCSDS_OMM_VERS = 2.0
CREATION_DATE  = 
ORIGINATOR     = 

OBJECT_NAME    = SL-16 R/B
OBJECT_ID      = 1988-102B
CENTER_NAME    = EARTH
REF_FRAME      = TEME
TIME_SYSTEM    = UTC
MEAN_ELEMENT_THEORY = SGP/SGP4

EPOCH          = 2026-01-23T21:50:56.877792
MEAN_MOTION    = 14.16148250
ECCENTRICITY   = .00119205
INCLINATION    = 70.9977
RA_OF_ASC_NODE = 245.7143
ARG_OF_PERICENTER = 76.7646
MEAN_ANOMALY   = 283.4806

EPHEMERIS_TYPE = 0
CLASSIFICATION_TYPE = U
NORAD_CAT_ID   = 19650
ELEMENT_SET_NO = 999
REV_AT_EPOCH   = 92055
BSTAR          = .23472445E-4
MEAN_MOTION_DOT = -.1E-7
MEAN_MOTION_DDOT = 0

CCSDS_OMM_VERS = 2.0
CREATION_DATE  = 
ORIGINATOR     = 

OBJECT_NAME    = INTERCOSMOS 24
OBJECT_ID      = 1989-080A
CENTER_NAME    = EARTH
REF_FRAME      = TEME
TIME_SYSTEM    = UTC
MEAN_ELEMENT_THEORY = SGP/SGP4

EPOCH          = 2026-01-23T16:29:59.023680
MEAN_MOTION    = 12.59497929
ECCENTRICITY   = .11888195
INCLINATION    = 82.6079
RA_OF_ASC_NODE = 133.6855
ARG_OF_PERICENTER = 37.2695
MEAN_ANOMALY   = 330.5168

EPHEMERIS_TYPE = 0
CLASSIFICATION_TYPE = U
NORAD_CAT_ID   = 20261
ELEMENT_SET_NO = 999
REV_AT_EPOCH   = 66113
BSTAR          = .22082123E-3
MEAN_MOTION_DOT = .773E-5
MEAN_MOTION_DDOT = 0

CCSDS_OMM_VERS = 2.0
CREATION_DATE  = 
ORIGINATOR     = 

OBJECT_NAME    = SL-14 R/B
OBJECT_ID      = 1989-080C
CENTER_NAME    = EARTH
REF_FRAME      = TEME
TIME_SYSTEM    = UTC
MEAN_ELEMENT_THEORY = SGP/SGP4

EPOCH          = 2026-01-23T21:46:20.638848
MEAN_MOTION    = 12.50444816
ECCENTRICITY   = .12295522
INCLINATION    = 82.5921
RA_OF_ASC_NODE = 201.9402
ARG_OF_PERICENTER = 287.1848
MEAN_ANOMALY   = 59.8458

EPHEMERIS_TYPE = 0
CLASSIFICATION_TYPE = U
NORAD_CAT_ID   = 20262
ELEMENT_SET_NO = 999
REV_AT_EPOCH   = 65455
BSTAR          = .13254809E-3
MEAN_MOTION_DOT = .436E-5
MEAN_MOTION_DDOT = 0

CCSDS_OMM_VERS = 2.0
CREATION_DATE  = 
ORIGINATOR     = 

OBJECT_NAME    = DELTA 1 R/B
OBJECT_ID      = 1989-089B
CENTER_NAME    = EARTH
REF_FRAME      = TEME
TIME_SYSTEM    = UTC
MEAN_ELEMENT_THEORY = SGP/SGP4

EPOCH          = 2026-01-23T20:30:44.996544
MEAN_MOTION    = 14.50618331
ECCENTRICITY   = .00675468
INCLINATION    = 97.0733
RA_OF_ASC_NODE = 238.4145
ARG_OF_PERICENTER = 264.3491
MEAN_ANOMALY   = 95.0002

EPHEMERIS_TYPE = 0
CLASSIFICATION_TYPE = U
NORAD_CAT_ID   = 20323
ELEMENT_SET_NO = 999
REV_AT_EPOCH   = 88923
BSTAR          = .19436068E-3
MEAN_MOTION_DOT = .749E-5
MEAN_MOTION_DDOT = 0

CCSDS_OMM_VERS = 2.0
CREATION_DATE  = 
ORIGINATOR     = 

OBJECT_NAME    = ARIANE 40 R/B
OBJECT_ID      = 1990-005H
CENTER_NAME    = EARTH
REF_FRAME      = TEME
TIME_SYSTEM    = UTC
MEAN_ELEMENT_THEORY = SGP/SGP4

EPOCH          = 2026-01-23T22:07:26.399712
MEAN_MOTION    = 14.39837016
ECCENTRICITY   = .00096355
INCLINATION    = 98.3178
RA_OF_ASC_NODE = 85.8956
ARG_OF_PERICENTER = 346.1706
MEAN_ANOMALY   = 13.9217

EPHEMERIS_TYPE = 0
CLASSIFICATION_TYPE = U
NORAD_CAT_ID   = 20443
ELEMENT_SET_NO = 999
REV_AT_EPOCH   = 88636
BSTAR          = .24049564E-3
MEAN_MOTION_DOT = .713E-5
MEAN_MOTION_DDOT = 0

